[{"OBJECT_NAME":"STARLINK-33577","OBJECT_ID":"2025-015E","EPOCH":"2026-03-09T22:33:41.447520","MEAN_MOTION":15.30212007,"ECCENTRICITY":0.00039035,"INCLINATION":53.1586,"RA_OF_ASC_NODE":320.9972,"ARG_OF_PERICENTER":166.1901,"MEAN_ANOMALY":193.9208,"EPHEMERIS_TYPE":0,"CLASSIFICATION_TYPE":"U","NORAD_CAT_ID":62762,"ELEMENT_SET_NO":999,"REV_AT_EPOCH":6452,"BSTAR":0.00073719694,"MEAN_MOTION_DOT":0.00021549,"MEAN_MOTION_DDOT":0},{"OBJECT_NAME":"COSMOS 2535 DEB","OBJECT_ID":"2019-039M","EPOCH":"2026-03-08T03:25:35.903424","MEAN_MOTION":15.28322551,"ECCENTRICITY":0.0014917,"INCLINATION":97.5619,"RA_OF_ASC_NODE":139.2722,"ARG_OF_PERICENTER":329.0964,"MEAN_ANOMALY":30.9396,"EPHEMERIS_TYPE":0,"CLASSIFICATION_TYPE":"U","NORAD_CAT_ID":44641,"ELEMENT_SET_NO":999,"REV_AT_EPOCH":35167,"BSTAR":0.0011539757,"MEAN_MOTION_DOT":0.0003196,"MEAN_MOTION_DDOT":0}]
